STARLINK-36706          
1 67657U 26022K   26049.58336806 -.00028926  00000+0 -19341-3 0  9992
2 67657  97.2839  82.6295 0001329 102.5683 198.3477 15.75226520  3796
STARLINK-36701          
1 67658U 26022L   26049.58336806 -.00060528  00000+0 -40691-3 0  9999
2 67658  97.2838  82.6330 0001175  98.6956 208.2136 15.75241514  3820
STARLINK-36642          
1 67659U 26022M   26049.58336806 -.00062480  00000+0 -42025-3 0  9992
2 67659  97.2838  82.6359 0001041  91.2024 221.7070 15.75236414  3829
STARLINK-36673          
1 67660U 26022N   26049.58336806 -.00055565  00000+0 -37341-3 0  9995
2 67660  97.2843  82.6383 0001396 115.9721 204.9374 15.75231813  3823
STARLINK-36674          
1 67661U 26022P   26049.58336806  .00012213  00000+0  82604-4 0  9990
2 67661  97.2856  82.6405 0001293 110.2116 218.7046 15.75198473  3828
STARLINK-36700          
1 67662U 26022Q   26049.58336806 -.00029208  00000+0 -19527-3 0  9998
2 67662  97.2845  82.6464 0001637 130.7884 210.1037 15.75230475  3828
STARLINK-36675          
1 67663U 26022R   26049.58336806 -.00030171  00000+0 -20191-3 0  9999
2 67663  97.2857  82.6420 0001234  89.8376 243.0793 15.75214566  3824
STARLINK-36404          
1 67664U 26022S   26049.58336806 -.00077599  00000+0 -52313-3 0  9996
2 67664  97.2862  82.6481 0000785 100.8782 250.0432 15.75234310  3796
STARLINK-36399          
1 67665U 26022T   26049.58336806 -.00074339  00000+0 -50078-3 0  9992
2 67665  97.2849  82.6517 0001124 120.3564 234.5522 15.75240530  3793
STARLINK-36365          
1 67666U 26022U   26049.58336806 -.00302107  00000+0 -20733-2 0  9994
2 67666  97.2848  82.6540 0001383 103.3626 259.3713 15.75449931  3823
STARLINK-36622          
1 67667U 26022V   26049.58336806 -.00060515  00000+0 -40705-3 0  9991
2 67667  97.2847  82.6591 0001241  70.2599 302.6514 15.75228099  3824
STARLINK-36625          
1 67668U 26022W   26049.58336806 -.00105149  00000+0 -71025-3 0  9994
2 67668  97.2851  82.6628 0001368 100.3064 280.5910 15.75272113  3823
