CCSDS_OMM_VERS = 2.0
CREATION_DATE  = 
ORIGINATOR     = 

OBJECT_NAME    = STARLINK-36706
OBJECT_ID      = 2026-022K
CENTER_NAME    = EARTH
REF_FRAME      = TEME
TIME_SYSTEM    = UTC
MEAN_ELEMENT_THEORY = SGP/SGP4

EPOCH          = 2026-02-18T14:00:03.000384
MEAN_MOTION    = 15.75226520
ECCENTRICITY   = .0001329
INCLINATION    = 97.2839
RA_OF_ASC_NODE = 82.6295
ARG_OF_PERICENTER = 102.5683
MEAN_ANOMALY   = 198.3477

EPHEMERIS_TYPE = 0
CLASSIFICATION_TYPE = U
NORAD_CAT_ID   = 67657
ELEMENT_SET_NO = 999
REV_AT_EPOCH   = 379
BSTAR          = -.19340957E-3
MEAN_MOTION_DOT = -.28926E-3
MEAN_MOTION_DDOT = 0

CCSDS_OMM_VERS = 2.0
CREATION_DATE  = 
ORIGINATOR     = 

OBJECT_NAME    = STARLINK-36701
OBJECT_ID      = 2026-022L
CENTER_NAME    = EARTH
REF_FRAME      = TEME
TIME_SYSTEM    = UTC
MEAN_ELEMENT_THEORY = SGP/SGP4

EPOCH          = 2026-02-18T14:00:03.000384
MEAN_MOTION    = 15.75241514
ECCENTRICITY   = .00011753
INCLINATION    = 97.2838
RA_OF_ASC_NODE = 82.6330
ARG_OF_PERICENTER = 98.6956
MEAN_ANOMALY   = 208.2136

EPHEMERIS_TYPE = 0
CLASSIFICATION_TYPE = U
NORAD_CAT_ID   = 67658
ELEMENT_SET_NO = 999
REV_AT_EPOCH   = 382
BSTAR          = -.40690723E-3
MEAN_MOTION_DOT = -.60528E-3
MEAN_MOTION_DDOT = 0

CCSDS_OMM_VERS = 2.0
CREATION_DATE  = 
ORIGINATOR     = 

OBJECT_NAME    = STARLINK-36642
OBJECT_ID      = 2026-022M
CENTER_NAME    = EARTH
REF_FRAME      = TEME
TIME_SYSTEM    = UTC
MEAN_ELEMENT_THEORY = SGP/SGP4

EPOCH          = 2026-02-18T14:00:03.000384
MEAN_MOTION    = 15.75236414
ECCENTRICITY   = .00010413
INCLINATION    = 97.2838
RA_OF_ASC_NODE = 82.6359
ARG_OF_PERICENTER = 91.2024
MEAN_ANOMALY   = 221.7070

EPHEMERIS_TYPE = 0
CLASSIFICATION_TYPE = U
NORAD_CAT_ID   = 67659
ELEMENT_SET_NO = 999
REV_AT_EPOCH   = 382
BSTAR          = -.42025176E-3
MEAN_MOTION_DOT = -.6248E-3
MEAN_MOTION_DDOT = 0

CCSDS_OMM_VERS = 2.0
CREATION_DATE  = 
ORIGINATOR     = 

OBJECT_NAME    = STARLINK-36673
OBJECT_ID      = 2026-022N
CENTER_NAME    = EARTH
REF_FRAME      = TEME
TIME_SYSTEM    = UTC
MEAN_ELEMENT_THEORY = SGP/SGP4

EPOCH          = 2026-02-18T14:00:03.000384
MEAN_MOTION    = 15.75231813
ECCENTRICITY   = .00013962
INCLINATION    = 97.2843
RA_OF_ASC_NODE = 82.6383
ARG_OF_PERICENTER = 115.9721
MEAN_ANOMALY   = 204.9374

EPHEMERIS_TYPE = 0
CLASSIFICATION_TYPE = U
NORAD_CAT_ID   = 67660
ELEMENT_SET_NO = 999
REV_AT_EPOCH   = 382
BSTAR          = -.37340597E-3
MEAN_MOTION_DOT = -.55565E-3
MEAN_MOTION_DDOT = 0

CCSDS_OMM_VERS = 2.0
CREATION_DATE  = 
ORIGINATOR     = 

OBJECT_NAME    = STARLINK-36674
OBJECT_ID      = 2026-022P
CENTER_NAME    = EARTH
REF_FRAME      = TEME
TIME_SYSTEM    = UTC
MEAN_ELEMENT_THEORY = SGP/SGP4

EPOCH          = 2026-02-18T14:00:03.000384
MEAN_MOTION    = 15.75198473
ECCENTRICITY   = .00012938
INCLINATION    = 97.2856
RA_OF_ASC_NODE = 82.6405
ARG_OF_PERICENTER = 110.2116
MEAN_ANOMALY   = 218.7046

EPHEMERIS_TYPE = 0
CLASSIFICATION_TYPE = U
NORAD_CAT_ID   = 67661
ELEMENT_SET_NO = 999
REV_AT_EPOCH   = 382
BSTAR          = .82603863E-4
MEAN_MOTION_DOT = .12213E-3
MEAN_MOTION_DDOT = 0

CCSDS_OMM_VERS = 2.0
CREATION_DATE  = 
ORIGINATOR     = 

OBJECT_NAME    = STARLINK-36700
OBJECT_ID      = 2026-022Q
CENTER_NAME    = EARTH
REF_FRAME      = TEME
TIME_SYSTEM    = UTC
MEAN_ELEMENT_THEORY = SGP/SGP4

EPOCH          = 2026-02-18T14:00:03.000384
MEAN_MOTION    = 15.75230475
ECCENTRICITY   = .00016377
INCLINATION    = 97.2845
RA_OF_ASC_NODE = 82.6464
ARG_OF_PERICENTER = 130.7884
MEAN_ANOMALY   = 210.1037

EPHEMERIS_TYPE = 0
CLASSIFICATION_TYPE = U
NORAD_CAT_ID   = 67662
ELEMENT_SET_NO = 999
REV_AT_EPOCH   = 382
BSTAR          = -.19527256E-3
MEAN_MOTION_DOT = -.29208E-3
MEAN_MOTION_DDOT = 0

CCSDS_OMM_VERS = 2.0
CREATION_DATE  = 
ORIGINATOR     = 

OBJECT_NAME    = STARLINK-36675
OBJECT_ID      = 2026-022R
CENTER_NAME    = EARTH
REF_FRAME      = TEME
TIME_SYSTEM    = UTC
MEAN_ELEMENT_THEORY = SGP/SGP4

EPOCH          = 2026-02-18T14:00:03.000384
MEAN_MOTION    = 15.75214566
ECCENTRICITY   = .00012345
INCLINATION    = 97.2857
RA_OF_ASC_NODE = 82.6420
ARG_OF_PERICENTER = 89.8376
MEAN_ANOMALY   = 243.0793

EPHEMERIS_TYPE = 0
CLASSIFICATION_TYPE = U
NORAD_CAT_ID   = 67663
ELEMENT_SET_NO = 999
REV_AT_EPOCH   = 382
BSTAR          = -.20190739E-3
MEAN_MOTION_DOT = -.30171E-3
MEAN_MOTION_DDOT = 0

CCSDS_OMM_VERS = 2.0
CREATION_DATE  = 
ORIGINATOR     = 

OBJECT_NAME    = STARLINK-36404
OBJECT_ID      = 2026-022S
CENTER_NAME    = EARTH
REF_FRAME      = TEME
TIME_SYSTEM    = UTC
MEAN_ELEMENT_THEORY = SGP/SGP4

EPOCH          = 2026-02-18T14:00:03.000384
MEAN_MOTION    = 15.75234310
ECCENTRICITY   = .00007853
INCLINATION    = 97.2862
RA_OF_ASC_NODE = 82.6481
ARG_OF_PERICENTER = 100.8782
MEAN_ANOMALY   = 250.0432

EPHEMERIS_TYPE = 0
CLASSIFICATION_TYPE = U
NORAD_CAT_ID   = 67664
ELEMENT_SET_NO = 999
REV_AT_EPOCH   = 379
BSTAR          = -.52313475E-3
MEAN_MOTION_DOT = -.77599E-3
MEAN_MOTION_DDOT = 0

CCSDS_OMM_VERS = 2.0
CREATION_DATE  = 
ORIGINATOR     = 

OBJECT_NAME    = STARLINK-36399
OBJECT_ID      = 2026-022T
CENTER_NAME    = EARTH
REF_FRAME      = TEME
TIME_SYSTEM    = UTC
MEAN_ELEMENT_THEORY = SGP/SGP4

EPOCH          = 2026-02-18T14:00:03.000384
MEAN_MOTION    = 15.75240530
ECCENTRICITY   = .00011246
INCLINATION    = 97.2849
RA_OF_ASC_NODE = 82.6517
ARG_OF_PERICENTER = 120.3564
MEAN_ANOMALY   = 234.5522

EPHEMERIS_TYPE = 0
CLASSIFICATION_TYPE = U
NORAD_CAT_ID   = 67665
ELEMENT_SET_NO = 999
REV_AT_EPOCH   = 379
BSTAR          = -.50078043E-3
MEAN_MOTION_DOT = -.74339E-3
MEAN_MOTION_DDOT = 0

CCSDS_OMM_VERS = 2.0
CREATION_DATE  = 
ORIGINATOR     = 

OBJECT_NAME    = STARLINK-36365
OBJECT_ID      = 2026-022U
CENTER_NAME    = EARTH
REF_FRAME      = TEME
TIME_SYSTEM    = UTC
MEAN_ELEMENT_THEORY = SGP/SGP4

EPOCH          = 2026-02-18T14:00:03.000384
MEAN_MOTION    = 15.75449931
ECCENTRICITY   = .00013831
INCLINATION    = 97.2848
RA_OF_ASC_NODE = 82.6540
ARG_OF_PERICENTER = 103.3626
MEAN_ANOMALY   = 259.3713

EPHEMERIS_TYPE = 0
CLASSIFICATION_TYPE = U
NORAD_CAT_ID   = 67666
ELEMENT_SET_NO = 999
REV_AT_EPOCH   = 382
BSTAR          = -.20733436E-2
MEAN_MOTION_DOT = -.302107E-2
MEAN_MOTION_DDOT = 0

CCSDS_OMM_VERS = 2.0
CREATION_DATE  = 
ORIGINATOR     = 

OBJECT_NAME    = STARLINK-36622
OBJECT_ID      = 2026-022V
CENTER_NAME    = EARTH
REF_FRAME      = TEME
TIME_SYSTEM    = UTC
MEAN_ELEMENT_THEORY = SGP/SGP4

EPOCH          = 2026-02-18T14:00:03.000384
MEAN_MOTION    = 15.75228099
ECCENTRICITY   = .00012417
INCLINATION    = 97.2847
RA_OF_ASC_NODE = 82.6591
ARG_OF_PERICENTER = 70.2599
MEAN_ANOMALY   = 302.6514

EPHEMERIS_TYPE = 0
CLASSIFICATION_TYPE = U
NORAD_CAT_ID   = 67667
ELEMENT_SET_NO = 999
REV_AT_EPOCH   = 382
BSTAR          = -.40705108E-3
MEAN_MOTION_DOT = -.60515E-3
MEAN_MOTION_DDOT = 0

CCSDS_OMM_VERS = 2.0
CREATION_DATE  = 
ORIGINATOR     = 

OBJECT_NAME    = STARLINK-36625
OBJECT_ID      = 2026-022W
CENTER_NAME    = EARTH
REF_FRAME      = TEME
TIME_SYSTEM    = UTC
MEAN_ELEMENT_THEORY = SGP/SGP4

EPOCH          = 2026-02-18T14:00:03.000384
MEAN_MOTION    = 15.75272113
ECCENTRICITY   = .00013688
INCLINATION    = 97.2851
RA_OF_ASC_NODE = 82.6628
ARG_OF_PERICENTER = 100.3064
MEAN_ANOMALY   = 280.5910

EPHEMERIS_TYPE = 0
CLASSIFICATION_TYPE = U
NORAD_CAT_ID   = 67668
ELEMENT_SET_NO = 999
REV_AT_EPOCH   = 382
BSTAR          = -.71025321E-3
MEAN_MOTION_DOT = -.105149E-2
MEAN_MOTION_DDOT = 0

